{"type": "FeatureCollection", "features": [ {"type": "Feature", "properties": {"norad_id": 43437, "name": "SENTINEL-3B", "group": "resource", "lat": 77.89525408232052, "lon": -75.6308535049722, "alt_km": 794.1785917131965, "timestamp": "2025-12-20T05:41:49.675895+00:00", "meta": {"OBJECT_NAME": "SENTINEL-3B", "OBJECT_ID": "2018-039A", "EPOCH": "2025-12-19T15:46:20.299296", "MEAN_MOTION": 14.26736516, "ECCENTRICITY": 0.00016299, "INCLINATION": 98.6259, "RA_OF_ASC_NODE": 58.7431, "ARG_OF_PERICENTER": 94.9149, "MEAN_ANOMALY": 265.2217, "EPHEMERIS_TYPE": 0, "CLASSIFICATION_TYPE": "U", "NORAD_CAT_ID": 43437, "ELEMENT_SET_NO": 999, "REV_AT_EPOCH": 39852, "BSTAR": 6.0426874e-05, "MEAN_MOTION_DOT": 1.03e-06, "MEAN_MOTION_DDOT": 0}, "tle": {"line1": "1 43437U 18039A   25353.65717939  .00000103  00000+0  60427-4 0  9993", "line2": "2 43437  98.6259  58.7431 0001629  94.9149 265.2217 14.26736516398527"}}, "geometry": {"type": "Point", "coordinates": [-75.6308535049722, 77.89525408232052]}}, {"type": "Feature", "properties": {"norad_id": 43461, "name": "GAOFEN-5 01", "group": "resource", "lat": -80.06110959207625, "lon": 15.1888126784347, "alt_km": 698.7968933951188, "timestamp": "2025-12-20T05:41:49.675906+00:00", "meta": {"OBJECT_NAME": "GAOFEN-5 01", "OBJECT_ID": "2018-043A", "EPOCH": "2025-12-19T20:13:06.924000", "MEAN_MOTION": 14.60416951, "ECCENTRICITY": 5.516e-05, "INCLINATION": 98.4335, "RA_OF_ASC_NODE": 316.9339, "ARG_OF_PERICENTER": 297.4065, "MEAN_ANOMALY": 62.7078, "EPHEMERIS_TYPE": 0, "CLASSIFICATION_TYPE": "U", "NORAD_CAT_ID": 43461, "ELEMENT_SET_NO": 999, "REV_AT_EPOCH": 40551, "BSTAR": 7.5009583e-05, "MEAN_MOTION_DOT": 3.14e-06, "MEAN_MOTION_DDOT": 0}, "tle": {"line1": "1 43461U 18043A   25353.84244125  .00000314  00000+0  75010-4 0  9996", "line2": "2 43461  98.4335 316.9339 0000551 297.4065  62.7078 14.60416951405512"}}, "geometry": {"type": "Point", "coordinates": [15.1888126784347, -80.06110959207625]}}, {"type": "Feature", "properties": {"norad_id": 43484, "name": "GAOFEN-6", "group": "resource", "lat": -14.204734460269767, "lon": 60.24202750344301, "alt_km": 639.711308154845, "timestamp": "2025-12-20T05:41:49.675916+00:00", "meta": {"OBJECT_NAME": "GAOFEN-6", "OBJECT_ID": "2018-048A", "EPOCH": "2025-12-19T23:15:22.839840", "MEAN_MOTION": 14.76578722, "ECCENTRICITY": 0.00128819, "INCLINATION": 97.803, "RA_OF_ASC_NODE": 57.9935, "ARG_OF_PERICENTER": 42.3812, "MEAN_ANOMALY": 317.8391, "EPHEMERIS_TYPE": 0, "CLASSIFICATION_TYPE": "U", "NORAD_CAT_ID": 43484, "ELEMENT_SET_NO": 999, "REV_AT_EPOCH": 40694, "BSTAR": 9.3761531e-05, "MEAN_MOTION_DOT": 6.06e-06, "MEAN_MOTION_DDOT": 0}, "tle": {"line1": "1 43484U 18048A   25353.96901435  .00000606  00000+0  93762-4 0  9991", "line2": "2 43484  97.8030  57.9935 0012881  42.3812 317.8391 14.76578722406944"}}, "geometry": {"type": "Point", "coordinates": [60.24202750344301, -14.204734460269767]}}, {"type": "Feature", "properties": {"norad_id": 43585, "name": "GAOFEN-11 01", "group": "resource", "lat": -46.707220154680634, "lon": 64.77374529065415, "alt_km": 423.2206616211215, "timestamp": "2025-12-20T05:41:49.675926+00:00", "meta": {"OBJECT_NAME": "GAOFEN-11 01", "OBJECT_ID": "2018-063A", "EPOCH": "2025-12-19T22:09:01.342944", "MEAN_MOTION": 15.49406931, "ECCENTRICITY": 0.00039026, "INCLINATION": 97.156, "RA_OF_ASC_NODE": 56.7981, "ARG_OF_PERICENTER": 276.2621, "MEAN_ANOMALY": 83.8186, "EPHEMERIS_TYPE": 0, "CLASSIFICATION_TYPE": "U", "NORAD_CAT_ID": 43585, "ELEMENT_SET_NO": 999, "REV_AT_EPOCH": 41253, "BSTAR": 0.00013195695, "MEAN_MOTION_DOT": 7.151e-05, "MEAN_MOTION_DDOT": 0}, "tle": {"line1": "1 43585U 18063A   25353.92293221  .00007151  00000+0  13196-3 0  9997", "line2": "2 43585  97.1560  56.7981 0003902 276.2621  83.8186 15.49406931412532"}}, "geometry": {"type": "Point", "coordinates": [64.77374529065415, -46.707220154680634]}}, {"type": "Feature", "properties": {"norad_id": 43613, "name": "ICESAT-2", "group": "resource", "lat": -19.997612666368383, "lon": 62.03009912631888, "alt_km": 486.1895942931151, "timestamp": "2025-12-20T05:41:49.675937+00:00", "meta": {"OBJECT_NAME": "ICESAT-2", "OBJECT_ID": "2018-070A", "EPOCH": "2025-12-19T22:32:20.891616", "MEAN_MOTION": 15.28217851, "ECCENTRICITY": 0.00027834, "INCLINATION": 92.0049, "RA_OF_ASC_NODE": 242.6801, "ARG_OF_PERICENTER": 120.6722, "MEAN_ANOMALY": 239.4802, "EPHEMERIS_TYPE": 0, "CLASSIFICATION_TYPE": "U", "NORAD_CAT_ID": 43613, "ELEMENT_SET_NO": 999, "REV_AT_EPOCH": 40508, "BSTAR": 0.00029106468, "MEAN_MOTION_DOT": 8.001e-05, "MEAN_MOTION_DDOT": 0}, "tle": {"line1": "1 43613U 18070A   25353.93913069  .00008001  00000+0  29106-3 0  9990", "line2": "2 43613  92.0049 242.6801 0002783 120.6722 239.4802 15.28217851405081"}}, "geometry": {"type": "Point", "coordinates": [62.03009912631888, -19.997612666368383]}}, {"type": "Feature", "properties": {"norad_id": 43719, "name": "HYSIS", "group": "resource", "lat": 75.15916947914047, "lon": 25.079063163411867, "alt_km": 625.7059774090649, "timestamp": "2025-12-20T05:41:49.675947+00:00", "meta": {"OBJECT_NAME": "HYSIS", "OBJECT_ID": "2018-096A", "EPOCH": "2025-12-19T21:13:40.101888", "MEAN_MOTION": 14.78664694, "ECCENTRICITY": 0.00010988, "INCLINATION": 98.0096, "RA_OF_ASC_NODE": 56.8278, "ARG_OF_PERICENTER": 51.8808, "MEAN_ANOMALY": 308.2502, "EPHEMERIS_TYPE": 0, "CLASSIFICATION_TYPE": "U", "NORAD_CAT_ID": 43719, "ELEMENT_SET_NO": 999, "REV_AT_EPOCH": 38092, "BSTAR": 0.00018028991, "MEAN_MOTION_DOT": 1.269e-05, "MEAN_MOTION_DDOT": 0}, "tle": {"line1": "1 43719U 18096A   25353.88449192  .00001269  00000+0  18029-3 0  9991", "line2": "2 43719  98.0096  56.8278 0001098  51.8808 308.2502 14.78664694380929"}}, "geometry": {"type": "Point", "coordinates": [25.079063163411867, 75.15916947914047]}}, {"type": "Feature", "properties": {"norad_id": 43783, "name": "KAZSTSAT", "group": "resource", "lat": 28.308194938472557, "lon": -146.85655155104467, "alt_km": 571.1098163969145, "timestamp": "2025-12-20T05:41:49.675957+00:00", "meta": {"OBJECT_NAME": "KAZSTSAT", "OBJECT_ID": "2018-099AB", "EPOCH": "2025-12-19T01:47:43.400832", "MEAN_MOTION": 14.99363796, "ECCENTRICITY": 0.00059468, "INCLINATION": 97.4535, "RA_OF_ASC_NODE": 27.9874, "ARG_OF_PERICENTER": 301.8992, "MEAN_ANOMALY": 58.1653, "EPHEMERIS_TYPE": 0, "CLASSIFICATION_TYPE": "U", "NORAD_CAT_ID": 43783, "ELEMENT_SET_NO": 999, "REV_AT_EPOCH": 38431, "BSTAR": 3.2653117e-05, "MEAN_MOTION_DOT": 3.44e-06, "MEAN_MOTION_DDOT": 0}, "tle": {"line1": "1 43783U 18099AB  25353.07480788  .00000344  00000+0  32653-4 0  9995", "line2": "2 43783  97.4535  27.9874 0005946 301.8992  58.1653 14.99363796384317"}}, "geometry": {"type": "Point", "coordinates": [-146.85655155104467, 28.308194938472557]}}, {"type": "Feature", "properties": {"norad_id": 43831, "name": "SAUDISAT 5A", "group": "resource", "lat": -14.08510920229853, "lon": -127.56794122977752, "alt_km": 499.40134434836455, "timestamp": "2025-12-20T05:41:49.675967+00:00", "meta": {"OBJECT_NAME": "SAUDISAT 5A", "OBJECT_ID": "2018-102A", "EPOCH": "2025-12-19T22:33:13.855680", "MEAN_MOTION": 15.25739633, "ECCENTRICITY": 0.00114448, "INCLINATION": 97.3347, "RA_OF_ASC_NODE": 53.9922, "ARG_OF_PERICENTER": 54.0452, "MEAN_ANOMALY": 306.1847, "EPHEMERIS_TYPE": 0, "CLASSIFICATION_TYPE": "U", "NORAD_CAT_ID": 43831, "ELEMENT_SET_NO": 999, "REV_AT_EPOCH": 38832, "BSTAR": 0.00017363613, "MEAN_MOTION_DOT": 4.365e-05, "MEAN_MOTION_DDOT": 0}, "tle": {"line1": "1 43831U 18102A   25353.93974370  .00004365  00000+0  17364-3 0  9992", "line2": "2 43831  97.3347  53.9922 0011444  54.0452 306.1847 15.25739633388325"}}, "geometry": {"type": "Point", "coordinates": [-127.56794122977752, -14.08510920229853]}}, {"type": "Feature", "properties": {"norad_id": 43833, "name": "SAUDISAT 5B", "group": "resource", "lat": -73.93649001810589, "lon": -149.5744170998861, "alt_km": 502.6789842942271, "timestamp": "2025-12-20T05:41:49.675977+00:00", "meta": {"OBJECT_NAME": "SAUDISAT 5B", "OBJECT_ID": "2018-102C", "EPOCH": "2025-12-19T22:17:09.045888", "MEAN_MOTION": 15.26088551, "ECCENTRICITY": 0.0012175, "INCLINATION": 97.3442, "RA_OF_ASC_NODE": 56.7327, "ARG_OF_PERICENTER": 56.2785, "MEAN_ANOMALY": 303.9613, "EPHEMERIS_TYPE": 0, "CLASSIFICATION_TYPE": "U", "NORAD_CAT_ID": 43833, "ELEMENT_SET_NO": 999, "REV_AT_EPOCH": 38843, "BSTAR": 0.00016586775, "MEAN_MOTION_DOT": 4.212e-05, "MEAN_MOTION_DDOT": 0}, "tle": {"line1": "1 43833U 18102C   25353.92857692  .00004212  00000+0  16587-3 0  9997", "line2": "2 43833  97.3442  56.7327 0012175  56.2785 303.9613 15.26088551388433"}}, "geometry": {"type": "Point", "coordinates": [-149.5744170998861, -73.93649001810589]}}, {"type": "Feature", "properties": {"norad_id": 44622, "name": "GAOFEN-10R", "group": "resource", "lat": 64.9130776725137, "lon": 139.3207408680697, "alt_km": 614.4444908457181, "timestamp": "2025-12-20T05:41:49.675988+00:00", "meta": {"OBJECT_NAME": "GAOFEN-10R", "OBJECT_ID": "2019-066A", "EPOCH": "2025-12-19T22:42:29.258208", "MEAN_MOTION": 14.82814626, "ECCENTRICITY": 0.00073951, "INCLINATION": 98.0288, "RA_OF_ASC_NODE": 301.4807, "ARG_OF_PERICENTER": 21.1181, "MEAN_ANOMALY": 339.0336, "EPHEMERIS_TYPE": 0, "CLASSIFICATION_TYPE": "U", "NORAD_CAT_ID": 44622, "ELEMENT_SET_NO": 999, "REV_AT_EPOCH": 33581, "BSTAR": 0.00014146323, "MEAN_MOTION_DOT": 1.09e-05, "MEAN_MOTION_DDOT": 0}, "tle": {"line1": "1 44622U 19066A   25353.94617197  .00001090  00000+0  14146-3 0  9990", "line2": "2 44622  98.0288 301.4807 0007395  21.1181 339.0336 14.82814626335815"}}, "geometry": {"type": "Point", "coordinates": [139.3207408680697, 64.9130776725137]}}]}